[{"OBJECT_NAME":"HAWK-C","OBJECT_ID":"2018-099AT","EPOCH":"2026-03-09T16:08:34.251360","MEAN_MOTION":15.26407167,"ECCENTRICITY":0.00403625,"INCLINATION":97.4027,"RA_OF_ASC_NODE":122.6817,"ARG_OF_PERICENTER":277.4052,"MEAN_ANOMALY":82.2601,"EPHEMERIS_TYPE":0,"CLASSIFICATION_TYPE":"U","NORAD_CAT_ID":43799,"ELEMENT_SET_NO":999,"REV_AT_EPOCH":39872,"BSTAR":0.00035662773,"MEAN_MOTION_DOT":9.431e-5,"MEAN_MOTION_DDOT":0},{"OBJECT_NAME":"STARLINK-32396","OBJECT_ID":"2024-191N","EPOCH":"2026-03-09T22:39:02.158272","MEAN_MOTION":15.27574185,"ECCENTRICITY":2.828e-5,"INCLINATION":42.9978,"RA_OF_ASC_NODE":156.6776,"ARG_OF_PERICENTER":241.7519,"MEAN_ANOMALY":118.3304,"EPHEMERIS_TYPE":0,"CLASSIFICATION_TYPE":"U","NORAD_CAT_ID":61633,"ELEMENT_SET_NO":999,"REV_AT_EPOCH":7753,"BSTAR":2.5555441e-5,"MEAN_MOTION_DOT":4.42e-6,"MEAN_MOTION_DDOT":0}]
